IXPE                    
1 49954U 21121A   24266.25002315  .00007733  00000+0  53823-3 0  9999
2 49954   0.2311  32.1729 0009006 285.4721  98.7948 15.00047629152498
